HIMAWARI-8              
1 40267U 14060A   23244.99216038 -.00000292  00000+0  00000+0 0  9995
2 40267   0.0235 138.5659 0001000  39.1976 300.9548  1.00268304 32642
